[{"OBJECT_NAME":"STARLINK-5976","OBJECT_ID":"2023-058AC","EPOCH":"2026-03-09T22:46:45.092928","MEAN_MOTION":15.05646081,"ECCENTRICITY":0.00020388,"INCLINATION":97.604,"RA_OF_ASC_NODE":71.4425,"ARG_OF_PERICENTER":84.7743,"MEAN_ANOMALY":275.3716,"EPHEMERIS_TYPE":0,"CLASSIFICATION_TYPE":"U","NORAD_CAT_ID":56343,"ELEMENT_SET_NO":999,"REV_AT_EPOCH":15823,"BSTAR":2.4273949e-5,"MEAN_MOTION_DOT":2.89e-6,"MEAN_MOTION_DDOT":0},{"OBJECT_NAME":"NOAA 16 DEB","OBJECT_ID":"2000-055LF","EPOCH":"2026-03-09T22:09:26.280576","MEAN_MOTION":15.03400913,"ECCENTRICITY":0.0013479,"INCLINATION":98.8787,"RA_OF_ASC_NODE":242.3075,"ARG_OF_PERICENTER":293.6263,"MEAN_ANOMALY":66.3543,"EPHEMERIS_TYPE":0,"CLASSIFICATION_TYPE":"U","NORAD_CAT_ID":41426,"ELEMENT_SET_NO":999,"REV_AT_EPOCH":52286,"BSTAR":0.010804821,"MEAN_MOTION_DOT":0.00150198,"MEAN_MOTION_DDOT":0}]
